ONEWEB-0328             
1 49197U 21083M   24173.17277375  .00000244  00000+0  63353-3 0  9992
2 49197  87.8925 104.7406 0001921  78.5777 281.5568 13.13471695136888
ONEWEB-0331             
1 49198U 21083N   24172.93446742  .00000068  00000+0  13882-3 0  9998
2 49198  87.9148 120.0315 0001903  84.0879 276.0470 13.18686240134295
ONEWEB-0333             
1 49199U 21083P   24172.86329753 -.00000392  00000+0 -11071-2 0  9992
2 49199  87.8935 104.8287 0002250  79.8101 280.3282 13.13471528135569
ONEWEB-0334             
1 49200U 21083Q   24172.75486787  .00000069  00000+0  13719-3 0  9995
2 49200  87.9205  59.0115 0002722  83.8728 276.2715 13.20772853140900
ONEWEB-0335             
1 49201U 21083R   24173.08708887 -.00000055  00000+0 -18470-3 0  9997
2 49201  87.8936 104.7729 0001965  75.7118 284.4229 13.13471785136897
ONEWEB-0336             
1 49202U 21083S   24173.20927524 -.00000077  00000+0 -24607-3 0  9996
2 49202  87.8936 104.7448 0002156  82.0168 278.1206 13.13471029136914
ONEWEB-0337             
1 49203U 21083T   24172.83777319 -.00000294  00000+0 -84065-3 0  9995
2 49203  87.8934 104.8170 0001950  78.2136 281.9212 13.13471056135568
ONEWEB-0338             
1 49204U 21083U   24172.68541062  .00000040  00000+0  65663-4 0  9994
2 49204  87.9213  59.0090 0002285  74.7970 285.3416 13.20775281140915
ONEWEB-0339             
1 49205U 21083V   24172.84902156 -.00000202  00000+0 -58928-3 0  9995
2 49205  87.8933 104.8103 0001996  75.7115 284.4236 13.13471300135548
ONEWEB-0340             
1 49206U 21083W   24172.92022569  .00000004  00000+0 -22640-4 0  9998
2 49206  87.9148 120.0292 0001969  83.8293 276.3063 13.18685180134257
ONEWEB-0341             
1 49207U 21083X   24172.92813447  .00000018  00000+0  12344-4 0  9996
2 49207  87.9148 120.0416 0001846  60.3011 299.8305 13.18685760134273
ONEWEB-0342             
1 49208U 21083Y   24172.76749352  .00000031  00000+0  45211-4 0  9996
2 49208  87.9203  59.0024 0002076  77.9554 282.1812 13.20772963140892
ONEWEB-0343             
1 49209U 21083Z   24172.92338440 -.00000037  00000+0 -12570-3 0  9996
2 49209  87.9141 120.0493 0002048  64.3698 295.7645 13.18685551134329
ONEWEB-0344             
1 49210U 21083AA  24173.19657795  .00000236  00000+0  61255-3 0  9998
2 49210  87.8937 104.7584 0001573  70.8058 289.3241 13.13470597136899
ONEWEB-0345             
1 49211U 21083AB  24173.21403259 -.00000198  00000+0 -57663-3 0  9993
2 49211  87.8935 104.7299 0001528  70.6899 289.4396 13.13470840136907
ONEWEB-0346             
1 49212U 21083AC  24172.93286981  .00000019  00000+0  16663-4 0  9999
2 49212  87.9148 120.0493 0001785  91.1725 268.9612 13.18685011135559
ONEWEB-0348             
1 49213U 21083AD  24173.21255854 -.00000007  00000+0 -48574-4 0  9992
2 49213  87.9212  58.8863 0001175  84.8486 275.2781 13.20772034142288
ONEWEB-0350             
1 49214U 21083AE  24172.84266851 -.00000316  00000+0 -90039-3 0  9995
2 49214  87.8933 104.7951 0001717  73.1208 287.0109 13.13471549135581
ONEWEB-0351             
1 49215U 21083AF  24173.20610635  .00000111  00000+0  24165-3 0  9998
2 49215  87.9207  58.8864 0002835  73.8130 286.3315 13.20769517142258
ONEWEB-0352             
1 49216U 21083AG  24173.20452052  .00000055  00000+0  11450-3 0  9996
2 49216  87.8938 104.7543 0002265  74.5843 285.5536 13.13470342137022
ONEWEB-0354             
1 49217U 21083AH  24173.15574473  .00000104  00000+0  22312-3 0  9997
2 49217  87.9211  58.8818 0001653  71.5800 288.5513 13.20773190142289
ONEWEB-0355             
1 49218U 21083AJ  24172.85377680 -.00000132  00000+0 -39708-3 0  9995
2 49218  87.8935 104.8233 0002042  75.0098 285.1257 13.13472068135558
ONEWEB-0357             
1 49219U 21083AK  24173.15258899  .00000076  00000+0  15546-3 0  9999
2 49219  87.9206  58.9006 0001941  73.6027 286.5320 13.20772705142273
ONEWEB-0332             
1 49279U 21090A   24173.20720212 -.00000103  00000+0 -31275-3 0  9992
2 49279  87.8966  74.1598 0002288  80.6239 279.5149 13.14504412132209
ONEWEB-0347             
1 49280U 21090B   24172.91583871  .00000040  00000+0  65933-4 0  9996
2 49280  87.9211  58.9467 0002394  85.6464 274.4943 13.20769744135176
ONEWEB-0349             
1 49281U 21090C   24173.17468918  .00000106  00000+0  22959-3 0  9993
2 49281  87.9215  58.8947 0002016  81.8924 278.2438 13.20773994135288
ONEWEB-0353             
1 49282U 21090D   24173.19927320  .00000010  00000+0 -68138-5 0  9999
2 49282  87.8967  74.1463 0002234  79.2011 280.9370 13.14504325133495
ONEWEB-0356             
1 49283U 21090E   24172.71856466  .00000080  00000+0  16507-3 0  9996
2 49283  87.9212  58.9803 0001825 109.9419 250.1911 13.20771666133936
ONEWEB-0358             
1 49284U 21090F   24173.20308969  .00000045  00000+0  77743-4 0  9993
2 49284  87.9213  58.8703 0001631  85.8623 274.2696 13.20771782136018
ONEWEB-0359             
1 49285U 21090G   24172.66963946 -.00000009  00000+0 -54449-4 0  9995
2 49285  87.9210  58.9948 0001525  68.1487 291.9808 13.20772485134630
ONEWEB-0360             
1 49286U 21090H   24172.73591888  .00000060  00000+0  11471-3 0  9998
2 49286  87.9213  58.9864 0001801  78.2068 281.9267 13.20773473133955
ONEWEB-0361             
1 49287U 21090J   24172.71697322 -.00000132  00000+0 -35619-3 0  9999
2 49287  87.9211  58.9845 0001902  85.4925 274.6426 13.20770619134403
ONEWEB-0362             
1 49288U 21090K   24172.77652612  .00000011  00000+0 -45594-5 0  9999
2 49288  87.9157  89.5409 0002152  69.2306 290.9058 13.19723379131105
ONEWEB-0363             
1 49289U 21090L   24172.73275891  .00000050  00000+0  90147-4 0  9991
2 49289  87.9213  58.9766 0001717  90.9837 269.1493 13.20770873134412
ONEWEB-0364             
1 49290U 21090M   24173.14943171  .00000093  00000+0  19606-3 0  9999
2 49290  87.9211  58.9189 0001925  83.9054 276.2299 13.20771807136429
ONEWEB-0365             
1 49291U 21090N   24172.78602168  .00000079  00000+0  16387-3 0  9994
2 49291  87.9149  89.5190 0002107  76.2581 283.8786 13.19726017130616
ONEWEB-0366             
1 49292U 21090P   24172.81551357  .00000040  00000+0  73302-4 0  9991
2 49292  87.8967  74.2321 0002094  82.2694 277.8673 13.14505339132132
ONEWEB-0367             
1 49293U 21090Q   24173.18573156  .00000086  00000+0  17874-3 0  9995
2 49293  87.9212  58.8809 0002140  84.4784 275.6593 13.20772677135297
ONEWEB-0368             
1 49294U 21090R   24172.70436515  .00000088  00000+0  18386-3 0  9991
2 49294  87.9213  59.0071 0002497  97.6166 262.5251 13.20771943135086
ONEWEB-0369             
1 49295U 21090S   24172.85709220  .00000046  00000+0  81316-4 0  9992
2 49295  87.9156  89.5080 0002190  78.8862 281.2517 13.19726073130614
ONEWEB-0370             
1 49296U 21090T   24173.19519410  .00000080  00000+0  16429-3 0  9991
2 49296  87.9214  58.8835 0001666  70.4166 289.7147 13.20769722135335
ONEWEB-0371             
1 49297U 21090U   24172.78915826 -.00000020  00000+0 -81896-4 0  9994
2 49297  87.9157  89.5115 0002158  75.5881 284.5491 13.19727327130648
ONEWEB-0372             
1 49298U 21090V   24172.72947433  .00000056  00000+0  10612-3 0  9992
2 49298  87.9213  58.9843 0002013  79.8741 280.2619 13.20770056133942
ONEWEB-0373             
1 49299U 21090W   24173.21097301 -.00000029  00000+0 -10306-3 0  9990
2 49299  87.9211  58.9047 0001994  90.5346 269.6016 13.20771550136490
ONEWEB-0374             
1 49300U 21090X   24172.72670665  .00000023  00000+0  26493-4 0  9995
2 49300  87.8967  74.2348 0001973  81.3873 278.7481 13.14501826132128
ONEWEB-0375             
1 49301U 21090Y   24172.66805887  .00000024  00000+0  27858-4 0  9992
2 49301  87.9212  58.9890 0001465 101.4067 258.7231 13.20771712134627
ONEWEB-0376             
1 49302U 21090Z   24172.78760520  .00000045  00000+0  80070-4 0  9998
2 49302  87.9150  89.5198 0002300  77.1093 283.0296 13.19725574130640
ONEWEB-0377             
1 49303U 21090AA  24172.72974716  .00000021  00000+0  19219-4 0  9998
2 49303  87.9213  58.9679 0001689  77.0001 283.1321 13.20770002134622
ONEWEB-0378             
1 49304U 21090AB  24173.20638749  .00000010  00000+0 -68418-5 0  9991
2 49304  87.9213  58.8762 0001842  84.2819 275.8524 13.20771407135278
ONEWEB-0379             
1 49305U 21090AC  24173.17866405  .00000271  00000+0  69681-3 0  9999
2 49305  87.8967  74.1476 0002021  80.0401 280.0957 13.14503472133485
ONEWEB-0380             
1 49306U 21090AD  24172.86025087 -.00000023  00000+0 -90509-4 0  9999
2 49306  87.9155  89.5101 0001996  76.7253 283.4102 13.19725534130620
ONEWEB-0381             
1 49307U 21090AE  24172.95372134  .00000097  00000+0  20742-3 0  9998
2 49307  87.9212  58.9306 0001772  81.4584 278.6751 13.20770372135267
ONEWEB-0382             
1 49308U 21090AF  24172.71383375  .00000135  00000+0  30125-3 0  9991
2 49308  87.9212  58.9753 0001860  95.4580 264.6765 13.20771542133924
ONEWEB-0383             
1 49309U 21090AG  24172.71560314  .00000245  00000+0  62760-3 0  9994
2 49309  87.8963  74.2282 0002028  84.7844 275.3517 13.14504473132154
ONEWEB-0384             
1 49310U 21090AH  24172.71067236  .00000170  00000+0  38635-3 0  9992
2 49310  87.9212  58.9873 0001880  97.7698 262.3648 13.20771662133936
ONEWEB-0385             
1 49311U 21090AJ  24172.70594276  .00000083  00000+0  17180-3 0  9996
2 49311  87.9213  58.9895 0001733  92.0361 268.0971 13.20771996133903
ONEWEB-0386             
1 49312U 21090AK  24173.17785575  .00000121  00000+0  26475-3 0  9993
2 49312  87.9208  58.8899 0001916  91.3367 268.7986 13.20772555135291
ONEWEB-0387             
1 49313U 21090AL  24172.70751841  .00000136  00000+0  30147-3 0  9998
2 49313  87.9214  59.0465 0001538  85.3219 274.8090 13.20773010133929
ONEWEB-0388             
1 49314U 21090AM  24172.77969795  .00000067  00000+0  13427-3 0  9990
2 49314  87.9157  89.5297 0002092  82.7250 277.4120 13.19725161130606
